[Satellite]
VERSION=1.1
NAME=SL-8 R/B
NICKNAME=SL-8 R/B
TLE1=1 21088U 91006B   22342.42895205  .00000158  00000+0  14399-3 0  9995
TLE2=2 21088  82.9411 333.0918 0023831 118.5537  33.6005 13.77227877600633
STATUS=0
